{
 "type": "FeatureCollection",
 "features": [
  {
   "type": "Feature",
   "properties": {
    "cad_num": "39:13:010203:101"
   },
   "geometry": {
    "type": "Polygon",
    "coordinates": [
     [
      [
       21.795,
       54.625
      ],
      [
       21.79676788099563,
       54.625
      ],
      [
       21.79676788099563,
       54.62623123874676
      ],
      [
       21.795,
       54.62623123874676
      ],
      [
       21.795,
       54.625
      ]
     ]
    ]
   }
  },
  {
   "type": "Feature",
   "properties": {
    "cad_num": "39:13:010203:102"
   },
   "geometry": {
    "type": "Polygon",
    "coordinates": [
     [
      [
       21.7972,
       54.625
      ],
      [
       21.79895604825151,
       54.625
      ],
      [
       21.79895604825151,
       54.62623736040024
      ],
      [
       21.7972,
       54.62623736040024
      ],
      [
       21.7972,
       54.625
      ]
     ]
    ]
   }
  },
  {
   "type": "Feature",
   "properties": {
    "cad_num": "39:13:010203:103"
   },
   "geometry": {
    "type": "Polygon",
    "coordinates": [
     [
      [
       21.799400000000002,
       54.625
      ],
      [
       21.801450144624745,
       54.625
      ],
      [
       21.801450144624745,
       54.626387486464374
      ],
      [
       21.799400000000002,
       54.626387486464374
      ],
      [
       21.799400000000002,
       54.625
      ]
     ]
    ]
   }
  },
  {
   "type": "Feature",
   "properties": {
    "cad_num": "39:13:010203:104"
   },
   "geometry": {
    "type": "Polygon",
    "coordinates": [
     [
      [
       21.8016,
       54.625
      ],
      [
       21.80340374884413,
       54.625
      ],
      [
       21.80340374884413,
       54.62621365547498
      ],
      [
       21.8016,
       54.62621365547498
      ],
      [
       21.8016,
       54.625
      ]
     ]
    ]
   }
  },
  {
   "type": "Feature",
   "properties": {
    "cad_num": "39:13:010203:105"
   },
   "geometry": {
    "type": "Polygon",
    "coordinates": [
     [
      [
       21.795,
       54.6265
      ],
      [
       21.796742638420817,
       54.6265
      ],
      [
       21.796742638420817,
       54.62798881399197
      ],
      [
       21.795,
       54.62798881399197
      ],
      [
       21.795,
       54.6265
      ]
     ]
    ]
   }
  },
  {
   "type": "Feature",
   "properties": {
    "cad_num": "39:13:010203:106"
   },
   "geometry": {
    "type": "Polygon",
    "coordinates": [
     [
      [
       21.7972,
       54.6265
      ],
      [
       21.799035203747003,
       54.6265
      ],
      [
       21.799035203747003,
       54.62802966381541
      ],
      [
       21.7972,
       54.62802966381541
      ],
      [
       21.7972,
       54.6265
      ]
     ]
    ]
   }
  },
  {
   "type": "Feature",
   "properties": {
    "cad_num": "39:13:010203:107"
   },
   "geometry": {
    "type": "Polygon",
    "coordinates": [
     [
      [
       21.799400000000002,
       54.6265
      ],
      [
       21.801058971741,
       54.6265
      ],
      [
       21.801058971741,
       54.62750517000306
      ],
      [
       21.799400000000002,
       54.62750517000306
      ],
      [
       21.799400000000002,
       54.6265
      ]
     ]
    ]
   }
  },
  {
   "type": "Feature",
   "properties": {
    "cad_num": "39:13:010203:108"
   },
   "geometry": {
    "type": "Polygon",
    "coordinates": [
     [
      [
       21.8016,
       54.6265
      ],
      [
       21.803539081116604,
       54.6265
      ],
      [
       21.803539081116604,
       54.627753306343216
      ],
      [
       21.8016,
       54.627753306343216
      ],
      [
       21.8016,
       54.6265
      ]
     ]
    ]
   }
  },
  {
   "type": "Feature",
   "properties": {
    "cad_num": "39:13:010203:109"
   },
   "geometry": {
    "type": "Polygon",
    "coordinates": [
     [
      [
       21.795,
       54.628
      ],
      [
       21.797201822060927,
       54.628
      ],
      [
       21.797201822060927,
       54.62952038770195
      ],
      [
       21.795,
       54.62952038770195
      ],
      [
       21.795,
       54.628
      ]
     ]
    ]
   }
  },
  {
   "type": "Feature",
   "properties": {
    "cad_num": "39:13:010203:110"
   },
   "geometry": {
    "type": "Polygon",
    "coordinates": [
     [
      [
       21.7972,
       54.628
      ],
      [
       21.799210692981365,
       54.628
      ],
      [
       21.799210692981365,
       54.62917987850428
      ],
      [
       21.7972,
       54.62917987850428
      ],
      [
       21.7972,
       54.628
      ]
     ]
    ]
   }
  },
  {
   "type": "Feature",
   "properties": {
    "cad_num": "39:13:010203:111"
   },
   "geometry": {
    "type": "Polygon",
    "coordinates": [
     [
      [
       21.799400000000002,
       54.628
      ],
      [
       21.801572974813382,
       54.628
      ],
      [
       21.801572974813382,
       54.629276103719015
      ],
      [
       21.799400000000002,
       54.629276103719015
      ],
      [
       21.799400000000002,
       54.628
      ]
     ]
    ]
   }
  },
  {
   "type": "Feature",
   "properties": {
    "cad_num": "39:13:010203:112"
   },
   "geometry": {
    "type": "Polygon",
    "coordinates": [
     [
      [
       21.8016,
       54.628
      ],
      [
       21.803405990383492,
       54.628
      ],
      [
       21.803405990383492,
       54.62919238793954
      ],
      [
       21.8016,
       54.62919238793954
      ],
      [
       21.8016,
       54.628
      ]
     ]
    ]
   }
  }
 ]
}